FENGYUN 3B              
1 37214U 10059A   25334.87367196  .00000098  00000+0  74449-4 0  9994
2 37214  98.9925  14.7672 0022551  31.1599  80.5628 14.14784422779381
SUOMI NPP               
1 37849U 11061A   25334.85192789  .00000117  00000+0  76477-4 0  9999
2 37849  98.7755 272.3015 0001792 141.9113 218.2190 14.19508682730303
METEOSAT-10 (MSG-3)     
1 38552U 12035B   25334.07743935  .00000015  00000+0  00000+0 0  9993
2 38552   4.1965  61.7407 0000543 218.0524 177.3977  1.00272045 48867
METOP-B                 
1 38771U 12049A   25334.75583905  .00000143  00000+0  85284-4 0  9999
2 38771  98.6817  24.9168 0002351 171.6940 188.4276 14.21401095685075
INSAT-3D                
1 39216U 13038B   25334.81649250 -.00000317  00000+0  00000+0 0  9998
2 39216   1.4110  85.1320 0001650 149.1844 259.0545  1.00275316 45095
FENGYUN 3C              
1 39260U 13052A   25334.87099911  .00000127  00000+0  85664-4 0  9994
2 39260  98.4751 313.1306 0013735 231.8727 128.1210 14.15690342630506
METEOR-M 2              
1 40069U 14037A   25334.85174331  .00000171  00000+0  97631-4 0  9991
2 40069  98.4890 312.8928 0004641 250.0632 110.0046 14.21379050591149
HIMAWARI-8              
1 40267U 14060A   25334.81874586 -.00000253  00000+0  00000+0 0  9993
2 40267   0.0404 150.3080 0001098 124.3370 230.7295  1.00273103 40777
