{
  "type": "FeatureCollection",
  "features": [
    {
      "type": "Feature",
      "properties": {
        "norad_id": 37214,
        "name": "FENGYUN 3B",
        "group": "weather",
        "lat": NaN,
        "lon": NaN,
        "alt_km": NaN,
        "timestamp": "2025-12-01T02:46:55.349090+00:00",
        "meta": {
          "OBJECT_NAME": "FENGYUN 3B",
          "OBJECT_ID": "2010-059A",
          "EPOCH": "2025-11-30T20:58:05.257344",
          "MEAN_MOTION": 14.14784422,
          "ECCENTRICITY": 0.0022551,
          "INCLINATION": 98.9925,
          "RA_OF_ASC_NODE": 14.7672,
          "ARG_OF_PERICENTER": 31.1599,
          "MEAN_ANOMALY": 80.5628,
          "EPHEMERIS_TYPE": 0,
          "CLASSIFICATION_TYPE": "U",
          "NORAD_CAT_ID": 37214,
          "ELEMENT_SET_NO": 999,
          "REV_AT_EPOCH": 77938,
          "BSTAR": 7.4449e-05,
          "MEAN_MOTION_DOT": 9.8e-07,
          "MEAN_MOTION_DDOT": 0
        }
      },
      "geometry": {
        "type": "Point",
        "coordinates": [
          NaN,
          NaN
        ]
      }
    },
    {
      "type": "Feature",
      "properties": {
        "norad_id": 37849,
        "name": "SUOMI NPP",
        "group": "weather",
        "lat": NaN,
        "lon": NaN,
        "alt_km": NaN,
        "timestamp": "2025-12-01T02:46:55.349108+00:00",
        "meta": {
          "OBJECT_NAME": "SUOMI NPP",
          "OBJECT_ID": "2011-061A",
          "EPOCH": "2025-11-30T20:26:46.569696",
          "MEAN_MOTION": 14.19508682,
          "ECCENTRICITY": 0.0001792,
          "INCLINATION": 98.7755,
          "RA_OF_ASC_NODE": 272.3015,
          "ARG_OF_PERICENTER": 141.9113,
          "MEAN_ANOMALY": 218.219,
          "EPHEMERIS_TYPE": 0,
          "CLASSIFICATION_TYPE": "U",
          "NORAD_CAT_ID": 37849,
          "ELEMENT_SET_NO": 999,
          "REV_AT_EPOCH": 73030,
          "BSTAR": 7.6477e-05,
          "MEAN_MOTION_DOT": 1.17e-06,
          "MEAN_MOTION_DDOT": 0
        }
      },
      "geometry": {
        "type": "Point",
        "coordinates": [
          NaN,
          NaN
        ]
      }
    },
    {
      "type": "Feature",
      "properties": {
        "norad_id": 38552,
        "name": "METEOSAT-10 (MSG-3)",
        "group": "weather",
        "lat": NaN,
        "lon": NaN,
        "alt_km": NaN,
        "timestamp": "2025-12-01T02:46:55.349126+00:00",
        "meta": {
          "OBJECT_NAME": "METEOSAT-10 (MSG-3)",
          "OBJECT_ID": "2012-035B",
          "EPOCH": "2025-11-30T01:51:30.759840",
          "MEAN_MOTION": 1.00272045,
          "ECCENTRICITY": 5.437e-05,
          "INCLINATION": 4.1965,
          "RA_OF_ASC_NODE": 61.7407,
          "ARG_OF_PERICENTER": 218.0524,
          "MEAN_ANOMALY": 177.3977,
          "EPHEMERIS_TYPE": 0,
          "CLASSIFICATION_TYPE": "U",
          "NORAD_CAT_ID": 38552,
          "ELEMENT_SET_NO": 999,
          "REV_AT_EPOCH": 4886,
          "BSTAR": 0,
          "MEAN_MOTION_DOT": 1.5e-07,
          "MEAN_MOTION_DDOT": 0
        }
      },
      "geometry": {
        "type": "Point",
        "coordinates": [
          NaN,
          NaN
        ]
      }
    },
    {
      "type": "Feature",
      "properties": {
        "norad_id": 38771,
        "name": "METOP-B",
        "group": "weather",
        "lat": NaN,
        "lon": NaN,
        "alt_km": NaN,
        "timestamp": "2025-12-01T02:46:55.349145+00:00",
        "meta": {
          "OBJECT_NAME": "METOP-B",
          "OBJECT_ID": "2012-049A",
          "EPOCH": "2025-11-30T18:08:24.493920",
          "MEAN_MOTION": 14.21401095,
          "ECCENTRICITY": 0.0002351,
          "INCLINATION": 98.6817,
          "RA_OF_ASC_NODE": 24.9168,
          "ARG_OF_PERICENTER": 171.694,
          "MEAN_ANOMALY": 188.4276,
          "EPHEMERIS_TYPE": 0,
          "CLASSIFICATION_TYPE": "U",
          "NORAD_CAT_ID": 38771,
          "ELEMENT_SET_NO": 999,
          "REV_AT_EPOCH": 68507,
          "BSTAR": 8.5284e-05,
          "MEAN_MOTION_DOT": 1.43e-06,
          "MEAN_MOTION_DDOT": 0
        }
      },
      "geometry": {
        "type": "Point",
        "coordinates": [
          NaN,
          NaN
        ]
      }
    },
    {
      "type": "Feature",
      "properties": {
        "norad_id": 39216,
        "name": "INSAT-3D",
        "group": "weather",
        "lat": NaN,
        "lon": NaN,
        "alt_km": NaN,
        "timestamp": "2025-12-01T02:46:55.349164+00:00",
        "meta": {
          "OBJECT_NAME": "INSAT-3D",
          "OBJECT_ID": "2013-038B",
          "EPOCH": "2025-11-30T19:35:44.952000",
          "MEAN_MOTION": 1.00275316,
          "ECCENTRICITY": 0.000165,
          "INCLINATION": 1.411,
          "RA_OF_ASC_NODE": 85.132,
          "ARG_OF_PERICENTER": 149.1844,
          "MEAN_ANOMALY": 259.0545,
          "EPHEMERIS_TYPE": 0,
          "CLASSIFICATION_TYPE": "U",
          "NORAD_CAT_ID": 39216,
          "ELEMENT_SET_NO": 999,
          "REV_AT_EPOCH": 4509,
          "BSTAR": 0,
          "MEAN_MOTION_DOT": -3.17e-06,
          "MEAN_MOTION_DDOT": 0
        }
      },
      "geometry": {
        "type": "Point",
        "coordinates": [
          NaN,
          NaN
        ]
      }
    },
    {
      "type": "Feature",
      "properties": {
        "norad_id": 39260,
        "name": "FENGYUN 3C",
        "group": "weather",
        "lat": NaN,
        "lon": NaN,
        "alt_km": NaN,
        "timestamp": "2025-12-01T02:46:55.349182+00:00",
        "meta": {
          "OBJECT_NAME": "FENGYUN 3C",
          "OBJECT_ID": "2013-052A",
          "EPOCH": "2025-11-30T20:54:14.323104",
          "MEAN_MOTION": 14.15690342,
          "ECCENTRICITY": 0.0013735,
          "INCLINATION": 98.4751,
          "RA_OF_ASC_NODE": 313.1306,
          "ARG_OF_PERICENTER": 231.8727,
          "MEAN_ANOMALY": 128.121,
          "EPHEMERIS_TYPE": 0,
          "CLASSIFICATION_TYPE": "U",
          "NORAD_CAT_ID": 39260,
          "ELEMENT_SET_NO": 999,
          "REV_AT_EPOCH": 63050,
          "BSTAR": 8.5664e-05,
          "MEAN_MOTION_DOT": 1.27e-06,
          "MEAN_MOTION_DDOT": 0
        }
      },
      "geometry": {
        "type": "Point",
        "coordinates": [
          NaN,
          NaN
        ]
      }
    },
    {
      "type": "Feature",
      "properties": {
        "norad_id": 40069,
        "name": "METEOR-M 2",
        "group": "weather",
        "lat": NaN,
        "lon": NaN,
        "alt_km": NaN,
        "timestamp": "2025-12-01T02:46:55.349200+00:00",
        "meta": {
          "OBJECT_NAME": "METEOR-M 2",
          "OBJECT_ID": "2014-037A",
          "EPOCH": "2025-11-30T20:26:30.621984",
          "MEAN_MOTION": 14.2137905,
          "ECCENTRICITY": 0.0004641,
          "INCLINATION": 98.489,
          "RA_OF_ASC_NODE": 312.8928,
          "ARG_OF_PERICENTER": 250.0632,
          "MEAN_ANOMALY": 110.0046,
          "EPHEMERIS_TYPE": 0,
          "CLASSIFICATION_TYPE": "U",
          "NORAD_CAT_ID": 40069,
          "ELEMENT_SET_NO": 999,
          "REV_AT_EPOCH": 59114,
          "BSTAR": 9.7631e-05,
          "MEAN_MOTION_DOT": 1.71e-06,
          "MEAN_MOTION_DDOT": 0
        }
      },
      "geometry": {
        "type": "Point",
        "coordinates": [
          NaN,
          NaN
        ]
      }
    },
    {
      "type": "Feature",
      "properties": {
        "norad_id": 40267,
        "name": "HIMAWARI-8",
        "group": "weather",
        "lat": NaN,
        "lon": NaN,
        "alt_km": NaN,
        "timestamp": "2025-12-01T02:46:55.349219+00:00",
        "meta": {
          "OBJECT_NAME": "HIMAWARI-8",
          "OBJECT_ID": "2014-060A",
          "EPOCH": "2025-11-30T19:38:59.642304",
          "MEAN_MOTION": 1.00273103,
          "ECCENTRICITY": 0.0001098,
          "INCLINATION": 0.0404,
          "RA_OF_ASC_NODE": 150.308,
          "ARG_OF_PERICENTER": 124.337,
          "MEAN_ANOMALY": 230.7295,
          "EPHEMERIS_TYPE": 0,
          "CLASSIFICATION_TYPE": "U",
          "NORAD_CAT_ID": 40267,
          "ELEMENT_SET_NO": 999,
          "REV_AT_EPOCH": 4077,
          "BSTAR": 0,
          "MEAN_MOTION_DOT": -2.53e-06,
          "MEAN_MOTION_DDOT": 0
        }
      },
      "geometry": {
        "type": "Point",
        "coordinates": [
          NaN,
          NaN
        ]
      }
    }
  ]
}